{"fetched_at":"2026-03-29T16:36:15Z","count":15609,"tles":[{"name":"STARLINK-1828","line1":"1 46725U 20073BH  26087.87993593  .00098383  00000+0  13187-2 0  9994","line2":"2 46725  53.0531 143.5996 0004832  40.8163 319.3209 15.57194662300195","category":"Starlink"}]}